SCD 1                   
1 22490U 93009B   19051.62006137  .00000213  00000-0  85500-5 0  9998
2 22490  24.9698 126.0018 0042922 331.1249 182.3838 14.44543279374119
TECHSAT 1B (GO-32)      
1 25397U 98043D   19051.89870395 -.00000016  00000-0  12084-4 0  9992
2 25397  98.6778 353.5441 0001990  50.6926 309.4428 14.23660426 70893
SCD 2                   
1 25504U 98060A   19052.01527723  .00000226  00000-0  13022-4 0  9995
2 25504  24.9964 330.5818 0017178   1.1516 305.2062 14.44061073 73758
LANDSAT 7               
1 25682U 99020A   19052.16251361  .00000162  00000-0  45849-4 0  9998
2 25682  98.1422 122.3005 0001174  84.3599 275.7751 14.57145003 56000
DLR-TUBSAT              
1 25757U 99029B   19052.20696116 -.00000004  00000-0  10427-4 0  9996
2 25757  98.4118 334.1951 0013684 219.3210 140.6992 14.51397341 45531
TERRA                   
1 25994U 99068A   19052.11043604  .00000187  00000-0  51479-4 0  9993
2 25994  98.2031 128.3552 0001335  86.2518 273.8876 14.57113830 20075
MAROC-TUBSAT            
1 27004U 01056D   19051.92263716 -.00000038  00000-0  68549-5 0  9996
2 27004  99.4430 187.6204 0019856 182.0888 287.2232 13.70133237860095
AQUA                    
1 27424U 02022A   19052.22474260  .00000050  00000-0  21301-4 0  9995
2 27424  98.2228 354.8048 0002655  54.9762  82.0613 14.57105095893697
IRS-P6 (RESOURCESAT-1)  
1 28051U 03046A   19052.05571416  .00001319  00000-0  47702-3 0  9992
2 28051  98.5289 131.3649 0058637  18.3172 342.0012 14.34171558797247
SHIYAN 1 (SY-1)         
1 28220U 04012A   19051.88975848  .00000307  00000-0  29733-4 0  9992
2 28220  97.7794  14.0497 0012240 228.2763 131.7414 14.99726093808392
FORMOSAT-2 (ROCSAT 2)   
1 28254U 04018A   19039.69554198  .00000100  00000-0  95395-4 0  9999
2 28254  98.7730  89.1619 0001411 301.5308  58.8347 14.00633044752800
AURA                    
1 28376U 04026A   19051.86085632  .00000045  00000-0  19961-4 0  9991
2 28376  98.2236 356.6063 0001397  63.8501 296.2841 14.57103992776643
IRS-P5 (CARTOSAT-1)     
1 28649U 05017A   19052.09215527  .00000036  00000-0  10806-4 0  9998
2 28649  97.8684 124.6170 0001082 137.2294 222.9002 14.83615696746994
SINAH 1                 
1 28893U 05043D   19051.94665453 -.00000008  00000-0  73914-5 0  9998
2 28893  97.9533 193.6713 0015673  24.6970 335.4979 14.61496198709845
EROS B                  
1 29079U 06014A   19052.16035575  .00001335  00000-0  58907-4 0  9992
2 29079  97.4065 172.3705 0003431 155.2313 305.1795 15.23496280711803
RESURS-DK 1             
1 29228U 06021A   19052.20764852  .00000050  00000-0  11130-4 0  9998
2 29228  69.9371 335.5437 0002576 161.3019 198.8237 15.02406936700316
ARIRANG-2 (KOMPSAT-2)   
1 29268U 06031A   19052.08221003  .00000025  00000-0  14129-4 0  9998
2 29268  98.0449 307.4198 0016814 233.7506 126.2153 14.62410142670717
LAPAN-TUBSAT            
1 29709U 07001A   19052.15198565 -.00000000  00000-0  65081-5 0  9998
2 29709  97.7904  17.3627 0011434 244.1816 115.8250 14.82161875654921
CARTOSAT-2 (IRS-P7)     
1 29710U 07001B   19052.07652623  .00000300  00000-0  47974-4 0  9993
2 29710  97.9901 112.1102 0001549  81.5491 278.5912 14.78649749653918
HAIYANG-1B              
1 31113U 07010A   19052.11423732 -.00000037  00000-0  21406-5 0  9996
2 31113  98.4723 104.1321 0012974 192.2681 167.8194 14.30214852619224
COSMO-SKYMED 1          
1 31598U 07023A   19052.18229453 -.00000377  00000-0 -40741-4 0  9998
2 31598  97.8863 237.2091 0001802  89.0109 271.1286 14.82157131633395
TERRASAR-X              
1 31698U 07026A   19050.83063979 -.00001086  00000-0 -48527-4 0  9999
2 31698  97.4455  59.7385 0001986  78.8979  44.9992 15.19143688647888
WORLDVIEW-1 (WV-1)      
1 32060U 07041A   19051.94089699  .00000575  00000-0  26312-4 0  9998
2 32060  97.3860 173.1631 0001965 111.5746   9.2009 15.24433267635757
YAOGAN 3                
1 32289U 07055A   19052.09843933 -.00000189  00000-0 -17525-4 0  9991
2 32289  98.0051  62.9625 0001724  97.6796 262.4620 14.80940968609597
COSMO-SKYMED 2          
1 32376U 07059A   19052.08107291  .00002453  00000-0  31454-3 0  9991
2 32376  97.8858 237.1092 0001294  92.9355 267.1941 14.82164278606129
RADARSAT-2              
1 32382U 07061A   19052.03046611  .00000057  00000-0  38874-4 0  9996
2 32382  98.5768  60.6548 0001288  90.7343   1.9590 14.29983857584026
CARTOSAT-2A             
1 32783U 08021A   19052.05507534 -.00000123  00000-0 -96407-5 0  9999
2 32783  97.9894 112.4659 0014073 124.4676 235.7885 14.78651326583854
JASON-2 (OSTM)          
1 33105U 08032A   19051.92275638 -.00000007  00000-0  21933-3 0  9992
2 33105  66.0394 271.7454 0007597 274.2727 212.3115 12.87628644499545
RAPIDEYE 2              
1 33312U 08040A   19050.18348514 -.00000040  00000-0  13080-5 0  9995
2 33312  97.7589 122.9044 0012671 152.2216 207.9974 14.80038027565880
RAPIDEYE 5              
1 33313U 08040B   19051.82958774 -.00016980  00000-0 -22366-2 0  9998
2 33313  97.7667 123.2269 0018756  34.1766 326.1775 14.80021335566078
RAPIDEYE 1              
1 33314U 08040C   19051.81775031 -.00010492  00000-0 -13750-2 0  9990
2 33314  97.7604 124.2278 0023587 163.1089 196.9283 14.80038569566119
RAPIDEYE 3              
1 33315U 08040D   19050.83980396 -.00000009  00000-0  54457-5 0  9998
2 33315  97.7709 122.1440 0013561 105.4651 254.8152 14.80032707565935
RAPIDEYE 4              
1 33316U 08040E   19050.82762429  .00000302  00000-0  46490-4 0  9995
2 33316  97.7734 121.9433 0013190  55.7378 304.5236 14.80036489565920
HUANJING 1A (HJ-1A)     
1 33320U 08041A   19052.13259015  .00000017  00000-0  95934-5 0  9990
2 33320  97.8555 113.7685 0025183 199.4936 160.5330 14.76996068563405
HUANJING 1B (HJ-1B)     
1 33321U 08041B   19052.10208064  .00000105  00000-0  22072-4 0  9996
2 33321  97.8623 115.4900 0033622 217.4327 142.4546 14.77100056563394
GEOEYE 1                
1 33331U 08042A   19052.12096926  .00000047  00000-0  17834-4 0  9997
2 33331  98.1063 128.5015 0010540 131.8451 228.3673 14.64307196558940
THEOS                   
1 33396U 08049A   19052.09515262  .00000182  00000-0  10584-3 0  9994
2 33396  98.6996 121.1856 0001229 100.4979  11.5093 14.20044636538602
COSMO-SKYMED 3          
1 33412U 08054A   19052.06839249  .00000905  00000-0  12023-3 0  9993
2 33412  97.8866 237.0968 0001542  83.1948 276.9429 14.82160734558585
YAOGAN 4                
1 33446U 08061A   19051.98510597  .00000055  00000-0  14598-4 0  9996
2 33446  97.6595  24.9647 0017612 105.1625 255.1535 14.76927997550616
GOSAT (IBUKI)           
1 33492U 09002A   19051.94002073  .00000067  00000-0  20184-4 0  9995
2 33492  98.0221 166.6211 0001453 107.7107 252.4256 14.67572226539380
YAOGAN 6                
1 34839U 09021A   19052.05940900  .00000444  00000-0  19524-4 0  9990
2 34839  97.0668  82.3478 0026615 301.2487  58.6146 15.26447231546215
DEIMOS-1                
1 35681U 09041A   19052.00322996  .00000076  00000-0  19780-4 0  9997
2 35681  97.8798 297.6989 0002622 126.3227 233.8229 14.71772324513420
DUBAISAT-1              
1 35682U 09041B   19052.14660459  .00000041  00000-0  14897-4 0  9998
2 35682  97.7346 251.8447 0011522 355.5534   4.5567 14.68717531512327
OCEANSAT-2              
1 35931U 09051A   19052.16946283  .00000063  00000-0  27044-4 0  9992
2 35931  98.2996 148.8851 0003040  98.7781 261.3758 14.50856145498482
WORLDVIEW-2 (WV-2)      
1 35946U 09055A   19052.09635143 -.00000039  00000-0  15723-5 0  9990
2 35946  98.4444 129.9058 0001985  27.0017 333.1285 14.37607362491712
SMOS                    
1 36036U 09059A   19051.94685307  .00000057  00000-0  31992-4 0  9999
2 36036  98.4430 240.8810 0000947  94.2128 265.9169 14.39761907488798
YAOGAN 7                
1 36110U 09069A   19052.13774676  .00000035  00000-0  13339-4 0  9994
2 36110  98.2643 232.4082 0023496 317.5999  42.3391 14.75180810495390
TANDEM-X                
1 36605U 10030A   19050.61039371 -.00000802  00000-0 -35012-4 0  9996
2 36605  97.4453  59.5216 0001696  89.1944 270.9492 15.19144186480598
CARTOSAT-2B             
1 36795U 10035A   19052.09172424  .00001682  00000-0  23626-3 0  9994
2 36795  97.9869 112.1790 0013618 198.3066 161.7487 14.78665989464903
YAOGAN 10               
1 36834U 10038A   19052.13393651  .00000023  00000-0  97825-5 0  9995
2 36834  97.9633  53.1934 0001608  84.0011 276.1381 14.80900669461346
COSMO-SKYMED 4          
1 37216U 10060A   19052.09792499  .00000022  00000-0  92651-5 0  9994
2 37216  97.8867 237.1244 0001487  82.3556 277.7830 14.82158348448675
RESOURCESAT-2           
1 37387U 11015A   19052.09887836 -.00000044  00000-0  33192-7 0  9996
2 37387  98.7284 128.6097 0003910  24.1216 336.0152 14.21619731406904
HAIYANG 2A              
1 37781U 11043A   19052.09332086  .00001515  00000-0  15336-2 0  9995
2 37781  99.3217  63.0557 0001456 106.6269 253.5044 13.78719839378570
RASAT                   
1 37791U 11044D   19052.15542844 -.00000017  00000-0  59968-5 0  9998
2 37791  98.1188 146.5958 0022033 352.7291   7.3592 14.64704344401649
MEGHA-TROPIQUES         
1 37838U 11058A   19052.03215502  .00000277  00000-0  76595-5 0  9992
2 37838  19.9789  42.6833 0009395 314.7288  45.2351 14.09658568379820
SRMSAT                  
1 37841U 11058D   19052.00568685  .00000287  00000-0  12706-4 0  9990
2 37841  19.9732  22.7758 0011740 344.8649  72.5851 14.10624451380050
YAOGAN 13               
1 37941U 11072A   19052.10742084  .00000414  00000-0  23764-4 0  9993
2 37941  97.5207 344.6246 0000800   8.3741 106.7667 15.17865510400798
PLEIADES 1A             
1 38012U 11076F   19052.19002031 -.00000054  00000-0 -19020-5 0  9990
2 38012  98.1743 128.4873 0001413  87.8579 272.2790 14.58565692382366
ZIYUAN 1-02C (ZY 1-02C) 
1 38038U 11079A   19052.15640014  .00000037  00000-0  27109-4 0  9991
2 38038  98.2585 103.0841 0001884  83.9634 276.1768 14.35489407375582
ZIYUAN 3 (ZY 3)         
1 38046U 12001A   19052.07970388  .00000375  00000-0  19876-4 0  9994
2 38046  97.4672 126.8509 0004717  84.9187   8.1014 15.21249518395284
